NORAD_CAT_ID,OBJECT_NAME,OBJECT_TYPE,EPOCH,MEAN_MOTION,ECCENTRICITY,INCLINATION,RA_OF_ASC_NODE,ARG_OF_PERICENTER,MEAN_ANOMALY,BSTAR,MEAN_MOTION_DOT,MEAN_MOTION_DDOT,TLE_LINE0,TLE_LINE1,TLE_LINE2,SEMIMAJOR_AXIS,PERIOD,APOGEE,PERIGEE,DECAYED
54088.0,STARLINK-5153,PAYLOAD,2023-06-21 13:16:16,15.08841671,0.0001199,53.2163,108.1002,99.2328,260.8799,-2.3296e-05,-6.59e-06,0.0,0 STARLINK-5153,1 54088U 22136AP  23172.55296773 -.00000659  00000-0 -23296-4 0  9996,2 54088  53.2163 108.1002 0001199  99.2328 260.8799 15.08841671 37206,6917.875,95.437,540.57,538.911,0.0
54088.0,STARLINK-5153,PAYLOAD,2023-06-22 19:28:36,15.08840019,0.0001273,53.2163,102.4504,94.2722,265.8416,2.3046e-05,7.9e-07,0.0,0 STARLINK-5153,1 54088U 22136AP  23173.81152922  .00000079  00000-0  23046-4 0  9990,2 54088  53.2163 102.4504 0001273  94.2722 265.8416 15.08840019 37864,6917.88,95.438,540.626,538.865,0.0
54088.0,STARLINK-5153,PAYLOAD,2023-06-24 01:40:55,15.0884603,0.0001293,53.2163,96.8018,90.3401,269.7739,3.2359e-05,2.27e-06,0.0,0 STARLINK-5153,1 54088U 22136AP  23175.07008441  .00000227  00000-0  32359-4 0  9998,2 54088  53.2163  96.8018 0001293  90.3401 269.7739 15.08846030 38055,6917.862,95.437,540.621,538.832,0.0
54088.0,STARLINK-5153,PAYLOAD,2023-06-24 11:13:14,15.08839984,0.0001248,53.2162,95.0177,92.9041,267.2094,2.0624e-05,4e-07,0.0,0 STARLINK-5153,1 54088U 22136AP  23175.46752907  .00000040  00000-0  20624-4 0  9999,2 54088  53.2162  95.0177 0001248  92.9041 267.2094 15.08839984 38113,6917.88,95.438,540.609,538.882,0.0
54088.0,STARLINK-5153,PAYLOAD,2023-06-26 02:57:53,15.08837238,0.0001108,53.2171,87.5835,91.1206,268.9913,1.0586e-05,-1.19e-06,0.0,0 STARLINK-5153,1 54088U 22136AP  23177.12353303 -.00000119  00000-0  10586-4 0  9995,2 54088  53.2171  87.5835 0001108  91.1206 268.9913 15.08837238 38364,6917.889,95.438,540.52,538.987,0.0
54088.0,STARLINK-5153,PAYLOAD,2023-06-27 10:45:36,15.08840504,9.52e-05,53.2169,81.6365,94.5981,265.512,-3.3419e-07,-2.93e-06,0.0,0 STARLINK-5153,1 54088U 22136AP  23178.44833369 -.00000293  00000-0 -33419-6 0  9992,2 54088  53.2169  81.6365 0000952  94.5981 265.5120 15.08840504 38562,6917.879,95.438,540.402,539.085,0.0
54088.0,STARLINK-5153,PAYLOAD,2023-06-29 02:30:14,15.08841332,9.4e-05,53.2169,74.2022,100.1709,259.9389,7.051e-05,8.35e-06,0.0,0 STARLINK-5153,1 54088U 22136AP  23180.10433510  .00000835  00000-0  70510-4 0  9993,2 54088  53.2169  74.2022 0000940 100.1709 259.9389 15.08841332 38811,6917.876,95.437,540.392,539.091,0.0
54088.0,STARLINK-5153,PAYLOAD,2023-06-30 21:25:39,15.08838034,0.0001071,53.2168,66.1728,94.4465,265.665,-1.0467e-05,-4.54e-06,0.0,0 STARLINK-5153,1 54088U 22136AP  23181.89281897 -.00000454  00000-0 -10467-4 0  9993,2 54088  53.2168  66.1728 0001071  94.4465 265.6650 15.08838034 39083,6917.886,95.438,540.492,539.01,0.0
54088.0,STARLINK-5153,PAYLOAD,2023-07-02 02:02:35,15.08844696,0.0001088,53.2169,60.8205,94.2615,265.8502,5.2082e-06,-2.05e-06,0.0,0 STARLINK-5153,1 54088U 22136AP  23183.08513472 -.00000205  00000-0  52082-5 0  9996,2 54088  53.2169  60.8205 0001088  94.2615 265.8502 15.08844696 39267,6917.866,95.437,540.484,538.978,0.0
54088.0,STARLINK-5153,PAYLOAD,2023-07-02 11:34:55,15.08832187,0.0001234,53.2166,59.0366,93.397,266.7164,2.6736e-05,1.38e-06,0.0,0 STARLINK-5153,1 54088U 22136AP  23183.48258212  .00000138  00000-0  26736-4 0  9998,2 54088  53.2166  59.0366 0001234  93.3970 266.7164 15.08832187 39322,6917.904,95.438,540.623,538.916,0.0
54088.0,STARLINK-5153,PAYLOAD,2023-07-04 00:08:47,15.08838923,0.0001228,53.2168,52.1975,91.715,268.3983,3.4021e-05,2.54e-06,0.0,0 STARLINK-5153,1 54088U 22136AP  23185.00610268  .00000254  00000-0  34021-4 0  9996,2 54088  53.2168  52.1975 0001228  91.7150 268.3983 15.08838923 39555,6917.884,95.438,540.598,538.899,0.0
54088.0,STARLINK-5153,PAYLOAD,2023-07-05 07:56:30,15.08836261,0.0001309,53.2172,46.2498,90.8407,269.2735,4.0287e-05,3.53e-06,0.0,0 STARLINK-5153,1 54088U 22136AP  23186.33090519  .00000353  00000-0  40287-4 0  9995,2 54088  53.2172  46.2498 0001309  90.8407 269.2735 15.08836261 39759,6917.892,95.438,540.662,538.851,0.0
54088.0,STARLINK-5153,PAYLOAD,2023-07-06 07:47:18,15.08828346,0.0001194,53.2166,41.7898,90.055,270.0578,-7.9645e-05,-1.555e-05,0.0,0 STARLINK-5153,1 54088U 22136AP  23187.32451655 -.00001555  00000-0 -79645-4 0  9994,2 54088  53.2166  41.7898 0001194  90.0550 270.0578 15.08828346 39906,6917.916,95.438,540.607,538.955,0.0
54088.0,STARLINK-5153,PAYLOAD,2023-07-06 17:19:36,15.08834075,0.0001179,53.2169,40.0044,90.6211,269.4917,-4.4347e-05,-9.93e-06,0.0,0 STARLINK-5153,1 54088U 22136AP  23187.72195383 -.00000993  00000-0 -44347-4 0  9997,2 54088  53.2169  40.0044 0001179  90.6211 269.4917 15.08834075 39968,6917.898,95.438,540.579,538.948,0.0
54088.0,STARLINK-5153,PAYLOAD,2023-07-07 20:21:09,15.08841921,0.0001131,53.217,34.9494,93.7229,266.3892,0.00020775,3.02e-05,0.0,0 STARLINK-5153,1 54088U 22136AP  23188.84802165  .00003020  00000-0  20775-3 0  9994,2 54088  53.2170  34.9494 0001131  93.7229 266.3892 15.08841921 40139,6917.875,95.437,540.522,538.957,0.0
54088.0,STARLINK-5153,PAYLOAD,2023-07-07 23:31:54,15.08852729,0.0001142,53.217,34.3554,87.1303,272.982,0.00015158,2.126e-05,0.0,0 STARLINK-5153,1 54088U 22136AP  23188.98049575  .00002126  00000-0  15158-3 0  9992,2 54088  53.2170  34.3554 0001142  87.1303 272.9820 15.08852729 40156,6917.841,95.437,540.496,538.916,0.0
54088.0,STARLINK-5153,PAYLOAD,2023-07-08 20:11:56,15.08837697,0.000105,53.2172,30.4891,93.4907,266.6205,8.044e-05,9.93e-06,0.0,0 STARLINK-5153,1 54088U 22136AP  23189.84162970  .00000993  00000-0  80440-4 0  9990,2 54088  53.2172  30.4891 0001050  93.4907 266.6205 15.08837697 40285,6917.887,95.438,540.479,539.026,0.0
54088.0,STARLINK-5153,PAYLOAD,2023-07-09 23:13:29,15.08846697,0.0001127,53.2184,25.4362,95.2764,264.8357,-1.8491e-05,-5.82e-06,0.0,0 STARLINK-5153,1 54088U 22136AP  23190.96770500 -.00000582  00000-0 -18491-4 0  9992,2 54088  53.2184  25.4362 0001127  95.2764 264.8357 15.08846697 40458,6917.86,95.437,540.505,538.945,0.0
54088.0,STARLINK-5153,PAYLOAD,2023-07-10 11:56:35,15.08836891,0.0001113,53.2179,23.0554,97.3493,262.7626,3.3764e-05,2.5e-06,0.0,0 STARLINK-5153,1 54088U 22136AP  23191.49762905  .00000250  00000-0  33764-4 0  9991,2 54088  53.2179  23.0554 0001113  97.3493 262.7626 15.08836891 40536,6917.89,95.438,540.525,538.985,0.0
54088.0,STARLINK-5153,PAYLOAD,2023-07-10 21:28:53,15.0884316,0.0001103,53.2178,21.2714,98.0822,262.0296,8.0459e-05,9.93e-06,0.0,0 STARLINK-5153,1 54088U 22136AP  23191.89506358  .00000993  00000-0  80459-4 0  9990,2 54088  53.2178  21.2714 0001103  98.0822 262.0296 15.08843160 40595,6917.871,95.437,540.499,538.973,0.0
54088.0,STARLINK-5153,PAYLOAD,2023-07-11 11:47:22,15.08837911,0.0001054,53.2176,18.5954,97.7196,262.3916,2.694e-05,1.41e-06,0.0,0 STARLINK-5153,1 54088U 22136AP  23192.49122914  .00000141  00000-0  26940-4 0  9999,2 54088  53.2176  18.5954 0001054  97.7196 262.3916 15.08837911 40682,6917.887,95.438,540.481,539.023,0.0
54088.0,STARLINK-5153,PAYLOAD,2023-07-12 17:59:41,15.08843877,0.0001052,53.2175,12.9429,91.4985,268.6128,2.4841e-05,1.08e-06,0.0,0 STARLINK-5153,1 54088U 22136AP  23193.74978766  .00000108  00000-0  24841-4 0  9993,2 54088  53.2175  12.9429 0001052  91.4985 268.6128 15.08843877 40874,6917.869,95.437,540.461,539.006,0.0
54088.0,STARLINK-5153,PAYLOAD,2023-07-13 17:50:29,15.08835207,0.0001123,53.219,8.4853,88.8769,271.2352,4.2929e-05,3.95e-06,0.0,0 STARLINK-5153,1 54088U 22136AP  23194.74339385  .00000395  00000-0  42929-4 0  9997,2 54088  53.2190   8.4853 0001123  88.8769 271.2352 15.08835207 41026,6917.895,95.438,540.537,538.983,0.0
54088.0,STARLINK-5153,PAYLOAD,2023-07-14 17:41:15,15.08845785,0.0001188,53.2163,4.0221,88.1021,272.0107,0.00011448,1.535e-05,0.0,0 STARLINK-5153,1 54088U 22136AP  23195.73698567  .00001535  00000-0  11448-3 0  9995,2 54088  53.2163   4.0221 0001188  88.1021 272.0107 15.08845785 41177,6917.863,95.437,540.55,538.906,0.0
54088.0,STARLINK-5153,PAYLOAD,2023-07-15 11:10:30,15.08833973,0.0001112,53.2185,0.7552,88.8498,271.2622,4.8447e-05,4.83e-06,0.0,0 STARLINK-5153,1 54088U 22136AP  23196.46563530  .00000483  00000-0  48447-4 0  9998,2 54088  53.2185   0.7552 0001112  88.8498 271.2622 15.08833973 41284,6917.899,95.438,540.533,538.995,0.0
54088.0,STARLINK-5153,PAYLOAD,2023-07-16 18:58:13,15.08841606,0.0001231,53.2185,354.8053,97.6886,262.4246,4.7929e-06,-2.12e-06,0.0,0 STARLINK-5153,1 54088U 22136AP  23197.79043432 -.00000212  00000-0  47929-5 0  9995,2 54088  53.2185 354.8053 0001231  97.6886 262.4246 15.08841606 41482,6917.875,95.437,540.592,538.889,0.0
54088.0,STARLINK-5153,PAYLOAD,2023-07-17 21:59:45,15.08852987,0.0001113,53.2188,349.7506,89.5377,270.5742,0.00017923,2.567e-05,0.0,0 STARLINK-5153,1 54088U 22136AP  23198.91650291  .00002567  00000-0  17923-3 0  9990,2 54088  53.2188 349.7506 0001113  89.5377 270.5742 15.08852987 41659,6917.841,95.437,540.476,538.936,0.0
54088.0,STARLINK-5153,PAYLOAD,2023-07-18 09:07:29,15.08832232,0.0001254,53.2191,347.6713,74.4072,285.7059,4.9757e-05,5.04e-06,0.0,0 STARLINK-5153,1 54088U 22136AP  23199.38020134  .00000504  00000-0  49757-4 0  9999,2 54088  53.2191 347.6713 0001254  74.4072 285.7059 15.08832232 41729,6917.904,95.438,540.637,538.902,0.0
54088.0,STARLINK-5153,PAYLOAD,2023-07-18 15:29:02,15.08823352,0.0001303,53.219,346.4819,89.18,270.9342,-8.2707e-05,-1.603e-05,0.0,0 STARLINK-5153,1 54088U 22136AP  23199.64517104 -.00001603  00000-0 -82707-4 0  9991,2 54088  53.2190 346.4819 0001303  89.1800 270.9342 15.08823352 41767,6917.931,95.439,540.698,538.895,0.0
54088.0,STARLINK-5153,PAYLOAD,2023-07-18 20:15:12,15.08817239,0.0001266,53.2189,345.5882,89.1532,270.9605,-0.00013842,-2.489e-05,0.0,0 STARLINK-5153,1 54088U 22136AP  23199.84389854 -.00002489  00000-0 -13842-3 0  9998,2 54088  53.2189 345.5882 0001266  89.1532 270.9605 15.08817239 41797,6917.95,95.439,540.691,538.939,0.0
